<?xml version="1.0" encoding="UTF-8"?>
<kml xmlns="http://www.opengis.net/kml/2.2"><Document><name>Game border</name><Style id="line-blue"><LineStyle><color>ffd49200</color><width>4</width></LineStyle></Style><Style id="dot-blue"><IconStyle><color>ffd49200</color><scale>0.9</scale><Icon><href>http://maps.google.com/mapfiles/kml/shapes/placemark_circle.png</href></Icon></IconStyle></Style><Style id="line-red"><LineStyle><color>ff2521e0</color><width>4</width></LineStyle></Style><Style id="dot-red"><IconStyle><color>ff2521e0</color><scale>0.9</scale><Icon><href>http://maps.google.com/mapfiles/kml/shapes/placemark_circle.png</href></Icon></IconStyle></Style><Style id="line-green"><LineStyle><color>ff4ca200</color><width>4</width></LineStyle></Style><Style id="dot-green"><IconStyle><color>ff4ca200</color><scale>0.9</scale><Icon><href>http://maps.google.com/mapfiles/kml/shapes/placemark_circle.png</href></Icon></IconStyle></Style><Style id="line-pendel"><LineStyle><color>ff9b62e4</color><width>4</width></LineStyle></Style><Style id="dot-pendel"><IconStyle><color>ff9b62e4</color><scale>0.9</scale><Icon><href>http://maps.google.com/mapfiles/kml/shapes/placemark_circle.png</href></Icon></IconStyle></Style><Style id="line-city"><LineStyle><color>ff929ba3</color><width>4</width></LineStyle></Style><Style id="dot-city"><IconStyle><color>ff929ba3</color><scale>0.9</scale><Icon><href>http://maps.google.com/mapfiles/kml/shapes/placemark_circle.png</href></Icon></IconStyle></Style><Style id="line-nockeby"><LineStyle><color>ffcba08c</color><width>4</width></LineStyle></Style><Style id="dot-nockeby"><IconStyle><color>ffcba08c</color><scale>0.9</scale><Icon><href>http://maps.google.com/mapfiles/kml/shapes/placemark_circle.png</href></Icon></IconStyle></Style><Style id="line-orange"><LineStyle><color>ff227cef</color><width>4</width></LineStyle></Style><Style id="dot-orange"><IconStyle><color>ff227cef</color><scale>0.9</scale><Icon><href>http://maps.google.com/mapfiles/kml/shapes/placemark_circle.png</href></Icon></IconStyle></Style><Style id="line-roslag"><LineStyle><color>ffc887b5</color><width>4</width></LineStyle></Style><Style id="dot-roslag"><IconStyle><color>ffc887b5</color><scale>0.9</scale><Icon><href>http://maps.google.com/mapfiles/kml/shapes/placemark_circle.png</href></Icon></IconStyle></Style><Style id="line-saltsjo"><LineStyle><color>ffa4b010</color><width>4</width></LineStyle></Style><Style id="dot-saltsjo"><IconStyle><color>ffa4b010</color><scale>0.9</scale><Icon><href>http://maps.google.com/mapfiles/kml/shapes/placemark_circle.png</href></Icon></IconStyle></Style><Style id="zone"><LineStyle><color>ff0080ff</color><width>2</width></LineStyle><PolyStyle><color>260080ff</color></PolyStyle></Style><Style id="border"><LineStyle><color>ff0000ff</color><width>3</width></LineStyle><PolyStyle><color>00000000</color></PolyStyle></Style><Folder><name>Game border</name><Placemark><name>Game border</name><styleUrl>#border</styleUrl><Polygon><outerBoundaryIs><LinearRing><coordinates>18.42573,59.35000,0 18.42565,59.35450,0 18.42542,59.35900,0 18.42503,59.36349,0 18.42449,59.36798,0 18.42380,59.37247,0 18.42296,59.37695,0 18.42196,59.38142,0 18.42080,59.38588,0 18.41950,59.39033,0 18.41804,59.39477,0 18.41643,59.39919,0 18.41467,59.40360,0 18.41276,59.40800,0 18.41070,59.41237,0 18.40849,59.41673,0 18.40614,59.42106,0 18.40363,59.42538,0 18.40097,59.42967,0 18.39817,59.43394,0 18.39523,59.43818,0 18.39214,59.44239,0 18.38890,59.44658,0 18.38552,59.45074,0 18.38200,59.45486,0 18.37834,59.45896,0 18.37454,59.46302,0 18.37061,59.46705,0 18.36653,59.47104,0 18.36232,59.47499,0 18.35797,59.47891,0 18.35349,59.48278,0 18.34888,59.48662,0 18.34414,59.49042,0 18.33927,59.49417,0 18.33427,59.49788,0 18.32914,59.50154,0 18.32389,59.50516,0 18.31852,59.50873,0 18.31302,59.51225,0 18.30741,59.51572,0 18.30168,59.51914,0 18.29583,59.52251,0 18.28986,59.52583,0 18.28379,59.52909,0 18.27760,59.53230,0 18.27131,59.53546,0 18.26490,59.53855,0 18.25840,59.54159,0 18.25179,59.54458,0 18.24507,59.54750,0 18.23826,59.55036,0 18.23136,59.55316,0 18.22435,59.55590,0 18.21726,59.55858,0 18.21007,59.56119,0 18.20280,59.56374,0 18.19544,59.56622,0 18.18799,59.56864,0 18.18047,59.57099,0 18.17286,59.57327,0 18.16518,59.57549,0 18.15742,59.57764,0 18.14959,59.57972,0 18.14170,59.58172,0 18.13373,59.58366,0 18.12570,59.58553,0 18.11760,59.58732,0 18.10945,59.58904,0 18.10124,59.59069,0 18.09297,59.59227,0 18.08465,59.59377,0 18.07628,59.59520,0 18.06786,59.59655,0 18.05940,59.59783,0 18.05089,59.59903,0 18.04235,59.60016,0 18.03376,59.60121,0 18.02515,59.60218,0 18.01650,59.60308,0 18.00782,59.60390,0 17.99911,59.60464,0 17.99038,59.60531,0 17.98163,59.60589,0 17.97286,59.60640,0 17.96408,59.60683,0 17.95528,59.60719,0 17.94647,59.60746,0 17.93765,59.60766,0 17.92883,59.60778,0 17.92000,59.60782,0 17.91117,59.60778,0 17.90235,59.60766,0 17.89353,59.60746,0 17.88472,59.60719,0 17.87592,59.60683,0 17.86714,59.60640,0 17.85837,59.60589,0 17.84962,59.60531,0 17.84089,59.60464,0 17.83218,59.60390,0 17.82350,59.60308,0 17.81485,59.60218,0 17.80624,59.60121,0 17.79765,59.60016,0 17.78911,59.59903,0 17.78060,59.59783,0 17.77214,59.59655,0 17.76372,59.59520,0 17.75535,59.59377,0 17.74703,59.59227,0 17.73876,59.59069,0 17.73055,59.58904,0 17.72240,59.58732,0 17.71430,59.58553,0 17.70627,59.58366,0 17.69830,59.58172,0 17.69041,59.57972,0 17.68258,59.57764,0 17.67482,59.57549,0 17.66714,59.57327,0 17.65953,59.57099,0 17.65201,59.56864,0 17.64456,59.56622,0 17.63720,59.56374,0 17.62993,59.56119,0 17.62274,59.55858,0 17.61565,59.55590,0 17.60864,59.55316,0 17.60174,59.55036,0 17.59493,59.54750,0 17.58821,59.54458,0 17.58160,59.54159,0 17.57510,59.53855,0 17.56869,59.53546,0 17.56240,59.53230,0 17.55621,59.52909,0 17.55014,59.52583,0 17.54417,59.52251,0 17.53832,59.51914,0 17.53259,59.51572,0 17.52698,59.51225,0 17.52148,59.50873,0 17.51611,59.50516,0 17.51086,59.50154,0 17.50573,59.49788,0 17.50073,59.49417,0 17.49586,59.49042,0 17.49112,59.48662,0 17.48651,59.48278,0 17.48203,59.47891,0 17.47768,59.47499,0 17.47347,59.47104,0 17.46939,59.46705,0 17.46546,59.46302,0 17.46166,59.45896,0 17.45800,59.45486,0 17.45448,59.45074,0 17.45110,59.44658,0 17.44786,59.44239,0 17.44477,59.43818,0 17.44183,59.43394,0 17.43903,59.42967,0 17.43637,59.42538,0 17.43386,59.42106,0 17.43151,59.41673,0 17.42930,59.41237,0 17.42724,59.40800,0 17.42533,59.40360,0 17.42357,59.39919,0 17.42196,59.39477,0 17.42050,59.39033,0 17.41920,59.38588,0 17.41804,59.38142,0 17.41704,59.37695,0 17.41620,59.37247,0 17.41551,59.36798,0 17.41497,59.36349,0 17.41458,59.35900,0 17.41435,59.35450,0 17.41427,59.35000,0 17.41435,59.34550,0 17.41458,59.34100,0 17.41497,59.33651,0 17.41551,59.33202,0 17.41620,59.32753,0 17.41704,59.32305,0 17.41804,59.31858,0 17.41920,59.31412,0 17.42050,59.30967,0 17.42196,59.30523,0 17.42357,59.30081,0 17.42533,59.29640,0 17.42724,59.29200,0 17.42930,59.28763,0 17.43151,59.28327,0 17.43386,59.27894,0 17.43637,59.27462,0 17.43903,59.27033,0 17.44183,59.26606,0 17.44477,59.26182,0 17.44786,59.25761,0 17.45110,59.25342,0 17.45448,59.24926,0 17.45800,59.24514,0 17.46166,59.24104,0 17.46546,59.23698,0 17.46939,59.23295,0 17.47347,59.22896,0 17.47768,59.22501,0 17.48203,59.22109,0 17.48651,59.21722,0 17.49112,59.21338,0 17.49586,59.20958,0 17.50073,59.20583,0 17.50573,59.20212,0 17.51086,59.19846,0 17.51611,59.19484,0 17.52148,59.19127,0 17.52698,59.18775,0 17.53259,59.18428,0 17.53832,59.18086,0 17.54417,59.17749,0 17.55014,59.17417,0 17.55621,59.17091,0 17.56240,59.16770,0 17.56869,59.16454,0 17.57510,59.16145,0 17.58160,59.15841,0 17.58821,59.15542,0 17.59493,59.15250,0 17.60174,59.14964,0 17.60864,59.14684,0 17.61565,59.14410,0 17.62274,59.14142,0 17.62993,59.13881,0 17.63720,59.13626,0 17.64456,59.13378,0 17.65201,59.13136,0 17.65953,59.12901,0 17.66714,59.12673,0 17.67482,59.12451,0 17.68258,59.12236,0 17.69041,59.12028,0 17.69830,59.11828,0 17.70627,59.11634,0 17.71430,59.11447,0 17.72240,59.11268,0 17.73055,59.11096,0 17.73876,59.10931,0 17.74703,59.10773,0 17.75535,59.10623,0 17.76372,59.10480,0 17.77214,59.10345,0 17.78060,59.10217,0 17.78911,59.10097,0 17.79765,59.09984,0 17.80624,59.09879,0 17.81485,59.09782,0 17.82350,59.09692,0 17.83218,59.09610,0 17.84089,59.09536,0 17.84962,59.09469,0 17.85837,59.09411,0 17.86714,59.09360,0 17.87592,59.09317,0 17.88472,59.09281,0 17.89353,59.09254,0 17.90235,59.09234,0 17.91117,59.09222,0 17.92000,59.09218,0 17.92883,59.09222,0 17.93765,59.09234,0 17.94647,59.09254,0 17.95528,59.09281,0 17.96408,59.09317,0 17.97286,59.09360,0 17.98163,59.09411,0 17.99038,59.09469,0 17.99911,59.09536,0 18.00782,59.09610,0 18.01650,59.09692,0 18.02515,59.09782,0 18.03376,59.09879,0 18.04235,59.09984,0 18.05089,59.10097,0 18.05940,59.10217,0 18.06786,59.10345,0 18.07628,59.10480,0 18.08465,59.10623,0 18.09297,59.10773,0 18.10124,59.10931,0 18.10945,59.11096,0 18.11760,59.11268,0 18.12570,59.11447,0 18.13373,59.11634,0 18.14170,59.11828,0 18.14959,59.12028,0 18.15742,59.12236,0 18.16518,59.12451,0 18.17286,59.12673,0 18.18047,59.12901,0 18.18799,59.13136,0 18.19544,59.13378,0 18.20280,59.13626,0 18.21007,59.13881,0 18.21726,59.14142,0 18.22435,59.14410,0 18.23136,59.14684,0 18.23826,59.14964,0 18.24507,59.15250,0 18.25179,59.15542,0 18.25840,59.15841,0 18.26490,59.16145,0 18.27131,59.16454,0 18.27760,59.16770,0 18.28379,59.17091,0 18.28986,59.17417,0 18.29583,59.17749,0 18.30168,59.18086,0 18.30741,59.18428,0 18.31302,59.18775,0 18.31852,59.19127,0 18.32389,59.19484,0 18.32914,59.19846,0 18.33427,59.20212,0 18.33927,59.20583,0 18.34414,59.20958,0 18.34888,59.21338,0 18.35349,59.21722,0 18.35797,59.22109,0 18.36232,59.22501,0 18.36653,59.22896,0 18.37061,59.23295,0 18.37454,59.23698,0 18.37834,59.24104,0 18.38200,59.24514,0 18.38552,59.24926,0 18.38890,59.25342,0 18.39214,59.25761,0 18.39523,59.26182,0 18.39817,59.26606,0 18.40097,59.27033,0 18.40363,59.27462,0 18.40614,59.27894,0 18.40849,59.28327,0 18.41070,59.28763,0 18.41276,59.29200,0 18.41467,59.29640,0 18.41643,59.30081,0 18.41804,59.30523,0 18.41950,59.30967,0 18.42080,59.31412,0 18.42196,59.31858,0 18.42296,59.32305,0 18.42380,59.32753,0 18.42449,59.33202,0 18.42503,59.33651,0 18.42542,59.34100,0 18.42565,59.34550,0 18.42573,59.35000,0</coordinates></LinearRing></outerBoundaryIs></Polygon></Placemark></Folder></Document></kml>