<?xml version="1.0" encoding="UTF-8"?>
<kml xmlns="http://www.opengis.net/kml/2.2"><Document><name>Stops</name><Style id="line-blue"><LineStyle><color>ffd49200</color><width>4</width></LineStyle></Style><Style id="dot-blue"><IconStyle><color>ffd49200</color><scale>0.9</scale><Icon><href>http://maps.google.com/mapfiles/kml/shapes/placemark_circle.png</href></Icon></IconStyle></Style><Style id="line-red"><LineStyle><color>ff2521e0</color><width>4</width></LineStyle></Style><Style id="dot-red"><IconStyle><color>ff2521e0</color><scale>0.9</scale><Icon><href>http://maps.google.com/mapfiles/kml/shapes/placemark_circle.png</href></Icon></IconStyle></Style><Style id="line-green"><LineStyle><color>ff4ca200</color><width>4</width></LineStyle></Style><Style id="dot-green"><IconStyle><color>ff4ca200</color><scale>0.9</scale><Icon><href>http://maps.google.com/mapfiles/kml/shapes/placemark_circle.png</href></Icon></IconStyle></Style><Style id="line-pendel"><LineStyle><color>ff9b62e4</color><width>4</width></LineStyle></Style><Style id="dot-pendel"><IconStyle><color>ff9b62e4</color><scale>0.9</scale><Icon><href>http://maps.google.com/mapfiles/kml/shapes/placemark_circle.png</href></Icon></IconStyle></Style><Style id="line-city"><LineStyle><color>ff929ba3</color><width>4</width></LineStyle></Style><Style id="dot-city"><IconStyle><color>ff929ba3</color><scale>0.9</scale><Icon><href>http://maps.google.com/mapfiles/kml/shapes/placemark_circle.png</href></Icon></IconStyle></Style><Style id="line-nockeby"><LineStyle><color>ffcba08c</color><width>4</width></LineStyle></Style><Style id="dot-nockeby"><IconStyle><color>ffcba08c</color><scale>0.9</scale><Icon><href>http://maps.google.com/mapfiles/kml/shapes/placemark_circle.png</href></Icon></IconStyle></Style><Style id="line-orange"><LineStyle><color>ff227cef</color><width>4</width></LineStyle></Style><Style id="dot-orange"><IconStyle><color>ff227cef</color><scale>0.9</scale><Icon><href>http://maps.google.com/mapfiles/kml/shapes/placemark_circle.png</href></Icon></IconStyle></Style><Style id="line-roslag"><LineStyle><color>ffc887b5</color><width>4</width></LineStyle></Style><Style id="dot-roslag"><IconStyle><color>ffc887b5</color><scale>0.9</scale><Icon><href>http://maps.google.com/mapfiles/kml/shapes/placemark_circle.png</href></Icon></IconStyle></Style><Style id="line-saltsjo"><LineStyle><color>ffa4b010</color><width>4</width></LineStyle></Style><Style id="dot-saltsjo"><IconStyle><color>ffa4b010</color><scale>0.9</scale><Icon><href>http://maps.google.com/mapfiles/kml/shapes/placemark_circle.png</href></Icon></IconStyle></Style><Style id="zone"><LineStyle><color>ff0080ff</color><width>2</width></LineStyle><PolyStyle><color>260080ff</color></PolyStyle></Style><Style id="border"><LineStyle><color>ff0000ff</color><width>3</width></LineStyle><PolyStyle><color>00000000</color></PolyStyle></Style><Folder><name>Tunnelbana</name><Placemark><name>Abrahamsberg</name><description>17/18/19 · Stockholm</description><styleUrl>#dot-green</styleUrl><Point><coordinates>17.953763,59.336468,0</coordinates></Point></Placemark><Placemark><name>Akalla</name><description>11 · Stockholm</description><styleUrl>#dot-blue</styleUrl><Point><coordinates>17.913219,59.415581,0</coordinates></Point></Placemark><Placemark><name>Alby</name><description>13 · Botkyrka</description><styleUrl>#dot-red</styleUrl><Point><coordinates>17.844807,59.239309,0</coordinates></Point></Placemark><Placemark><name>Alvik</name><description>17/18/19/12/30/31 · Stockholm</description><styleUrl>#dot-green</styleUrl><Point><coordinates>17.982279,59.333401,0</coordinates></Point></Placemark><Placemark><name>Aspudden</name><description>13 · Stockholm</description><styleUrl>#dot-red</styleUrl><Point><coordinates>18.002392,59.306576,0</coordinates></Point></Placemark><Placemark><name>Axelsberg</name><description>13 · Stockholm</description><styleUrl>#dot-red</styleUrl><Point><coordinates>17.974414,59.304325,0</coordinates></Point></Placemark><Placemark><name>Bagarmossen</name><description>17 · Stockholm</description><styleUrl>#dot-green</styleUrl><Point><coordinates>18.13134,59.276186,0</coordinates></Point></Placemark><Placemark><name>Bandhagen</name><description>19 · Stockholm</description><styleUrl>#dot-green</styleUrl><Point><coordinates>18.049588,59.270305,0</coordinates></Point></Placemark><Placemark><name>Bergshamra</name><description>14 · Solna</description><styleUrl>#dot-red</styleUrl><Point><coordinates>18.037404,59.380702,0</coordinates></Point></Placemark><Placemark><name>Björkhagen</name><description>17 · Stockholm</description><styleUrl>#dot-green</styleUrl><Point><coordinates>18.115486,59.291204,0</coordinates></Point></Placemark><Placemark><name>Blackeberg</name><description>17/18/19 · Stockholm</description><styleUrl>#dot-green</styleUrl><Point><coordinates>17.882699,59.348473,0</coordinates></Point></Placemark><Placemark><name>Blåsut</name><description>18 · Stockholm</description><styleUrl>#dot-green</styleUrl><Point><coordinates>18.091161,59.290503,0</coordinates></Point></Placemark><Placemark><name>Bredäng</name><description>13 · Stockholm</description><styleUrl>#dot-red</styleUrl><Point><coordinates>17.933437,59.294783,0</coordinates></Point></Placemark><Placemark><name>Brommaplan</name><description>17/18/19 · Stockholm</description><styleUrl>#dot-green</styleUrl><Point><coordinates>17.939694,59.338283,0</coordinates></Point></Placemark><Placemark><name>Danderyds sjukhus</name><description>14 · Danderyd</description><styleUrl>#dot-red</styleUrl><Point><coordinates>18.041963,59.390951,0</coordinates></Point></Placemark><Placemark><name>Duvbo</name><description>10 · Sundbyberg</description><styleUrl>#dot-blue</styleUrl><Point><coordinates>17.964303,59.367562,0</coordinates></Point></Placemark><Placemark><name>Enskede gård</name><description>19 · Stockholm</description><styleUrl>#dot-green</styleUrl><Point><coordinates>18.070204,59.289287,0</coordinates></Point></Placemark><Placemark><name>Farsta</name><description>18 · Stockholm</description><styleUrl>#dot-green</styleUrl><Point><coordinates>18.093929,59.243353,0</coordinates></Point></Placemark><Placemark><name>Farsta strand</name><description>18/43 · Stockholm</description><styleUrl>#dot-green</styleUrl><Point><coordinates>18.102066,59.235049,0</coordinates></Point></Placemark><Placemark><name>Fittja</name><description>13 · Botkyrka</description><styleUrl>#dot-red</styleUrl><Point><coordinates>17.860701,59.24736,0</coordinates></Point></Placemark><Placemark><name>Fridhemsplan</name><description>10/11/17/18/19 · Stockholm</description><styleUrl>#dot-blue</styleUrl><Point><coordinates>18.031055,59.332948,0</coordinates></Point></Placemark><Placemark><name>Fruängen</name><description>14 · Stockholm</description><styleUrl>#dot-red</styleUrl><Point><coordinates>17.964876,59.286468,0</coordinates></Point></Placemark><Placemark><name>Gamla stan</name><description>13/14/17/18/19 · Stockholm</description><styleUrl>#dot-red</styleUrl><Point><coordinates>18.067002,59.323305,0</coordinates></Point></Placemark><Placemark><name>Globen</name><description>19/30 · Stockholm</description><styleUrl>#dot-green</styleUrl><Point><coordinates>18.076785,59.294058,0</coordinates></Point></Placemark><Placemark><name>Gubbängen</name><description>18 · Stockholm</description><styleUrl>#dot-green</styleUrl><Point><coordinates>18.082079,59.26362,0</coordinates></Point></Placemark><Placemark><name>Gullmarsplan</name><description>17/18/19/30 · Stockholm</description><styleUrl>#dot-green</styleUrl><Point><coordinates>18.080639,59.299529,0</coordinates></Point></Placemark><Placemark><name>Gärdet</name><description>13 · Stockholm</description><styleUrl>#dot-red</styleUrl><Point><coordinates>18.098877,59.345877,0</coordinates></Point></Placemark><Placemark><name>Hagsätra</name><description>19 · Stockholm</description><styleUrl>#dot-green</styleUrl><Point><coordinates>18.012769,59.262548,0</coordinates></Point></Placemark><Placemark><name>Hallonbergen</name><description>10 · Sundbyberg</description><styleUrl>#dot-blue</styleUrl><Point><coordinates>17.969111,59.374459,0</coordinates></Point></Placemark><Placemark><name>Hallunda</name><description>13 · Botkyrka</description><styleUrl>#dot-red</styleUrl><Point><coordinates>17.825092,59.24328,0</coordinates></Point></Placemark><Placemark><name>Hammarbyhöjden</name><description>17 · Stockholm</description><styleUrl>#dot-green</styleUrl><Point><coordinates>18.104328,59.294805,0</coordinates></Point></Placemark><Placemark><name>Hjulsta</name><description>10 · Stockholm</description><styleUrl>#dot-blue</styleUrl><Point><coordinates>17.888219,59.396599,0</coordinates></Point></Placemark><Placemark><name>Hornstull</name><description>13/14 · Stockholm</description><styleUrl>#dot-red</styleUrl><Point><coordinates>18.036711,59.31642,0</coordinates></Point></Placemark><Placemark><name>Husby</name><description>11 · Stockholm</description><styleUrl>#dot-blue</styleUrl><Point><coordinates>17.928665,59.408185,0</coordinates></Point></Placemark><Placemark><name>Huvudsta</name><description>10 · Solna</description><styleUrl>#dot-blue</styleUrl><Point><coordinates>17.987073,59.349659,0</coordinates></Point></Placemark><Placemark><name>Hägerstensåsen</name><description>14 · Stockholm</description><styleUrl>#dot-red</styleUrl><Point><coordinates>17.977919,59.294998,0</coordinates></Point></Placemark><Placemark><name>Hässelby gård</name><description>17/18/19 · Stockholm</description><styleUrl>#dot-green</styleUrl><Point><coordinates>17.843908,59.366967,0</coordinates></Point></Placemark><Placemark><name>Hässelby strand</name><description>17/18/19 · Stockholm</description><styleUrl>#dot-green</styleUrl><Point><coordinates>17.832463,59.361466,0</coordinates></Point></Placemark><Placemark><name>Högdalen</name><description>19 · Stockholm</description><styleUrl>#dot-green</styleUrl><Point><coordinates>18.043057,59.263764,0</coordinates></Point></Placemark><Placemark><name>Hökarängen</name><description>18 · Stockholm</description><styleUrl>#dot-green</styleUrl><Point><coordinates>18.082846,59.257319,0</coordinates></Point></Placemark><Placemark><name>Hötorget</name><description>17/18/19 · Stockholm</description><styleUrl>#dot-green</styleUrl><Point><coordinates>18.063265,59.335831,0</coordinates></Point></Placemark><Placemark><name>Islandstorget</name><description>17/18/19 · Stockholm</description><styleUrl>#dot-green</styleUrl><Point><coordinates>17.893745,59.345938,0</coordinates></Point></Placemark><Placemark><name>Johannelund</name><description>17/18/19 · Stockholm</description><styleUrl>#dot-green</styleUrl><Point><coordinates>17.857853,59.367948,0</coordinates></Point></Placemark><Placemark><name>Karlaplan</name><description>13 · Stockholm</description><styleUrl>#dot-red</styleUrl><Point><coordinates>18.092295,59.339752,0</coordinates></Point></Placemark><Placemark><name>Kista</name><description>11 · Stockholm</description><styleUrl>#dot-blue</styleUrl><Point><coordinates>17.942422,59.403124,0</coordinates></Point></Placemark><Placemark><name>Kristineberg</name><description>17/18/19 · Stockholm</description><styleUrl>#dot-green</styleUrl><Point><coordinates>18.004109,59.332561,0</coordinates></Point></Placemark><Placemark><name>Kungsträdgården</name><description>10/11/7 · Stockholm</description><styleUrl>#dot-blue</styleUrl><Point><coordinates>18.071054,59.330839,0</coordinates></Point></Placemark><Placemark><name>Kärrtorp</name><description>17 · Stockholm</description><styleUrl>#dot-green</styleUrl><Point><coordinates>18.114632,59.284156,0</coordinates></Point></Placemark><Placemark><name>Liljeholmen</name><description>13/14/30 · Stockholm</description><styleUrl>#dot-red</styleUrl><Point><coordinates>18.023132,59.310744,0</coordinates></Point></Placemark><Placemark><name>Mariatorget</name><description>13/14 · Stockholm</description><styleUrl>#dot-red</styleUrl><Point><coordinates>18.060475,59.317115,0</coordinates></Point></Placemark><Placemark><name>Masmo</name><description>13 · Huddinge</description><styleUrl>#dot-red</styleUrl><Point><coordinates>17.881867,59.249864,0</coordinates></Point></Placemark><Placemark><name>Medborgarplatsen</name><description>17/18/19 · Stockholm</description><styleUrl>#dot-green</styleUrl><Point><coordinates>18.073207,59.315175,0</coordinates></Point></Placemark><Placemark><name>Midsommarkransen</name><description>14 · Stockholm</description><styleUrl>#dot-red</styleUrl><Point><coordinates>18.010997,59.301611,0</coordinates></Point></Placemark><Placemark><name>Mälarhöjden</name><description>13 · Stockholm</description><styleUrl>#dot-red</styleUrl><Point><coordinates>17.95574,59.300496,0</coordinates></Point></Placemark><Placemark><name>Mörby centrum</name><description>14 · Danderyd</description><styleUrl>#dot-red</styleUrl><Point><coordinates>18.036396,59.398585,0</coordinates></Point></Placemark><Placemark><name>Norsborg</name><description>13 · Botkyrka</description><styleUrl>#dot-red</styleUrl><Point><coordinates>17.812731,59.243904,0</coordinates></Point></Placemark><Placemark><name>Näckrosen</name><description>11 · Solna</description><styleUrl>#dot-blue</styleUrl><Point><coordinates>17.981792,59.367575,0</coordinates></Point></Placemark><Placemark><name>Odenplan</name><description>17/18/19/40/41/43 · Stockholm</description><styleUrl>#dot-green</styleUrl><Point><coordinates>18.04793,59.342989,0</coordinates></Point></Placemark><Placemark><name>Rinkeby</name><description>10 · Stockholm</description><styleUrl>#dot-blue</styleUrl><Point><coordinates>17.92838,59.388254,0</coordinates></Point></Placemark><Placemark><name>Rissne</name><description>10 · Sundbyberg</description><styleUrl>#dot-blue</styleUrl><Point><coordinates>17.940725,59.375576,0</coordinates></Point></Placemark><Placemark><name>Ropsten</name><description>13/21 · Stockholm</description><styleUrl>#dot-red</styleUrl><Point><coordinates>18.102396,59.357356,0</coordinates></Point></Placemark><Placemark><name>Råcksta</name><description>17/18/19 · Stockholm</description><styleUrl>#dot-green</styleUrl><Point><coordinates>17.881848,59.354913,0</coordinates></Point></Placemark><Placemark><name>Rådhuset</name><description>10/11 · Stockholm</description><styleUrl>#dot-blue</styleUrl><Point><coordinates>18.044255,59.33015,0</coordinates></Point></Placemark><Placemark><name>Rådmansgatan</name><description>17/18/19 · Stockholm</description><styleUrl>#dot-green</styleUrl><Point><coordinates>18.059068,59.340274,0</coordinates></Point></Placemark><Placemark><name>Rågsved</name><description>19 · Stockholm</description><styleUrl>#dot-green</styleUrl><Point><coordinates>18.028445,59.256689,0</coordinates></Point></Placemark><Placemark><name>Sandsborg</name><description>18 · Stockholm</description><styleUrl>#dot-green</styleUrl><Point><coordinates>18.091981,59.285689,0</coordinates></Point></Placemark><Placemark><name>Sankt Eriksplan</name><description>17/18/19 · Stockholm</description><styleUrl>#dot-green</styleUrl><Point><coordinates>18.037223,59.340539,0</coordinates></Point></Placemark><Placemark><name>Skanstull</name><description>17/18/19 · Stockholm</description><styleUrl>#dot-green</styleUrl><Point><coordinates>18.075958,59.308699,0</coordinates></Point></Placemark><Placemark><name>Skarpnäck</name><description>17 · Stockholm</description><styleUrl>#dot-green</styleUrl><Point><coordinates>18.132987,59.266406,0</coordinates></Point></Placemark><Placemark><name>Skogskyrkogården</name><description>18 · Stockholm</description><styleUrl>#dot-green</styleUrl><Point><coordinates>18.095398,59.278693,0</coordinates></Point></Placemark><Placemark><name>Skärholmen</name><description>13 · Stockholm</description><styleUrl>#dot-red</styleUrl><Point><coordinates>17.906752,59.27692,0</coordinates></Point></Placemark><Placemark><name>Skärmarbrink</name><description>17/18 · Stockholm</description><styleUrl>#dot-green</styleUrl><Point><coordinates>18.089902,59.295576,0</coordinates></Point></Placemark><Placemark><name>Slussen</name><description>13/14/17/18/19 · Stockholm</description><styleUrl>#dot-red</styleUrl><Point><coordinates>18.0722,59.319317,0</coordinates></Point></Placemark><Placemark><name>Sockenplan</name><description>19 · Stockholm</description><styleUrl>#dot-green</styleUrl><Point><coordinates>18.070283,59.282995,0</coordinates></Point></Placemark><Placemark><name>Solna centrum</name><description>11/30 · Solna</description><styleUrl>#dot-blue</styleUrl><Point><coordinates>17.997825,59.359506,0</coordinates></Point></Placemark><Placemark><name>Solna strand</name><description>10 · Solna</description><styleUrl>#dot-blue</styleUrl><Point><coordinates>17.973189,59.354464,0</coordinates></Point></Placemark><Placemark><name>Stadion</name><description>14 · Stockholm</description><styleUrl>#dot-red</styleUrl><Point><coordinates>18.080447,59.342285,0</coordinates></Point></Placemark><Placemark><name>Stadshagen</name><description>10/11 · Stockholm</description><styleUrl>#dot-blue</styleUrl><Point><coordinates>18.015877,59.33762,0</coordinates></Point></Placemark><Placemark><name>Stora mossen</name><description>17/18/19 · Stockholm</description><styleUrl>#dot-green</styleUrl><Point><coordinates>17.966065,59.334555,0</coordinates></Point></Placemark><Placemark><name>Stureby</name><description>19 · Stockholm</description><styleUrl>#dot-green</styleUrl><Point><coordinates>18.055816,59.274645,0</coordinates></Point></Placemark><Placemark><name>Sundbybergs centrum</name><description>10/43/30 · Sundbyberg</description><styleUrl>#dot-blue</styleUrl><Point><coordinates>17.97245,59.360672,0</coordinates></Point></Placemark><Placemark><name>Svedmyra</name><description>19 · Stockholm</description><styleUrl>#dot-green</styleUrl><Point><coordinates>18.067128,59.277491,0</coordinates></Point></Placemark><Placemark><name>Sätra</name><description>13 · Stockholm</description><styleUrl>#dot-red</styleUrl><Point><coordinates>17.921669,59.28576,0</coordinates></Point></Placemark><Placemark><name>T-Centralen</name><description>10/11/13/14/17/18/19/40/41/43/7 · Stockholm</description><styleUrl>#dot-blue</styleUrl><Point><coordinates>18.060944,59.331894,0</coordinates></Point></Placemark><Placemark><name>Tallkrogen</name><description>18 · Stockholm</description><styleUrl>#dot-green</styleUrl><Point><coordinates>18.086059,59.271529,0</coordinates></Point></Placemark><Placemark><name>Tekniska högskolan</name><description>14/27/28/29 · Stockholm</description><styleUrl>#dot-red</styleUrl><Point><coordinates>18.070863,59.345793,0</coordinates></Point></Placemark><Placemark><name>Telefonplan</name><description>14 · Stockholm</description><styleUrl>#dot-red</styleUrl><Point><coordinates>17.9982,59.298361,0</coordinates></Point></Placemark><Placemark><name>Tensta</name><description>10 · Stockholm</description><styleUrl>#dot-blue</styleUrl><Point><coordinates>17.899695,59.394767,0</coordinates></Point></Placemark><Placemark><name>Thorildsplan</name><description>17/18/19 · Stockholm</description><styleUrl>#dot-green</styleUrl><Point><coordinates>18.014319,59.331447,0</coordinates></Point></Placemark><Placemark><name>Universitetet</name><description>14/27/28/29 · Stockholm</description><styleUrl>#dot-red</styleUrl><Point><coordinates>18.054597,59.365202,0</coordinates></Point></Placemark><Placemark><name>Vällingby</name><description>17/18/19 · Stockholm</description><styleUrl>#dot-green</styleUrl><Point><coordinates>17.870843,59.363934,0</coordinates></Point></Placemark><Placemark><name>Västertorp</name><description>14 · Stockholm</description><styleUrl>#dot-red</styleUrl><Point><coordinates>17.966692,59.291315,0</coordinates></Point></Placemark><Placemark><name>Västra skogen</name><description>10/11 · Solna</description><styleUrl>#dot-blue</styleUrl><Point><coordinates>18.003871,59.347353,0</coordinates></Point></Placemark><Placemark><name>Vårberg</name><description>13 · Stockholm</description><styleUrl>#dot-red</styleUrl><Point><coordinates>17.89065,59.27601,0</coordinates></Point></Placemark><Placemark><name>Vårby gård</name><description>13 · Huddinge</description><styleUrl>#dot-red</styleUrl><Point><coordinates>17.883664,59.26508,0</coordinates></Point></Placemark><Placemark><name>Zinkensdamm</name><description>13/14 · Stockholm</description><styleUrl>#dot-red</styleUrl><Point><coordinates>18.049188,59.317831,0</coordinates></Point></Placemark><Placemark><name>Ängbyplan</name><description>17/18/19 · Stockholm</description><styleUrl>#dot-green</styleUrl><Point><coordinates>17.907413,59.341889,0</coordinates></Point></Placemark><Placemark><name>Åkeshov</name><description>17/18/19 · Stockholm</description><styleUrl>#dot-green</styleUrl><Point><coordinates>17.924219,59.342139,0</coordinates></Point></Placemark><Placemark><name>Örnsberg</name><description>13 · Stockholm</description><styleUrl>#dot-red</styleUrl><Point><coordinates>17.987701,59.305336,0</coordinates></Point></Placemark><Placemark><name>Östermalmstorg</name><description>13/14 · Stockholm</description><styleUrl>#dot-red</styleUrl><Point><coordinates>18.077689,59.335478,0</coordinates></Point></Placemark></Folder><Folder><name>Pendeltåg</name><Placemark><name>Arlanda central</name><description>40 · Sigtuna</description><styleUrl>#dot-pendel</styleUrl><Point><coordinates>17.928595,59.649426,0</coordinates></Point></Placemark><Placemark><name>Barkarby</name><description>43 · Järfälla</description><styleUrl>#dot-pendel</styleUrl><Point><coordinates>17.865414,59.404783,0</coordinates></Point></Placemark><Placemark><name>Bro</name><description>43 · Upplands-Bro</description><styleUrl>#dot-pendel</styleUrl><Point><coordinates>17.632897,59.512344,0</coordinates></Point></Placemark><Placemark><name>Bålsta</name><description>43 · Håbo</description><styleUrl>#dot-pendel</styleUrl><Point><coordinates>17.535322,59.567477,0</coordinates></Point></Placemark><Placemark><name>Flemingsberg</name><description>40/41 · Huddinge</description><styleUrl>#dot-pendel</styleUrl><Point><coordinates>17.946934,59.218719,0</coordinates></Point></Placemark><Placemark><name>Gnesta</name><description>48 · Gnesta</description><styleUrl>#dot-pendel</styleUrl><Point><coordinates>17.312508,59.048467,0</coordinates></Point></Placemark><Placemark><name>Gröndalsviken</name><description>43 · Nynäshamn</description><styleUrl>#dot-pendel</styleUrl><Point><coordinates>17.931768,58.899152,0</coordinates></Point></Placemark><Placemark><name>Handen</name><description>43 · Haninge</description><styleUrl>#dot-pendel</styleUrl><Point><coordinates>18.134055,59.166429,0</coordinates></Point></Placemark><Placemark><name>Helenelund</name><description>40/41 · Sollentuna</description><styleUrl>#dot-pendel</styleUrl><Point><coordinates>17.962877,59.408731,0</coordinates></Point></Placemark><Placemark><name>Hemfosa</name><description>43 · Haninge</description><styleUrl>#dot-pendel</styleUrl><Point><coordinates>17.975488,59.068222,0</coordinates></Point></Placemark><Placemark><name>Huddinge</name><description>40/41 · Huddinge</description><styleUrl>#dot-pendel</styleUrl><Point><coordinates>17.978356,59.235906,0</coordinates></Point></Placemark><Placemark><name>Häggvik</name><description>40/41 · Sollentuna</description><styleUrl>#dot-pendel</styleUrl><Point><coordinates>17.932998,59.443815,0</coordinates></Point></Placemark><Placemark><name>Jakobsberg</name><description>43 · Järfälla</description><styleUrl>#dot-pendel</styleUrl><Point><coordinates>17.833033,59.423561,0</coordinates></Point></Placemark><Placemark><name>Jordbro</name><description>43 · Haninge</description><styleUrl>#dot-pendel</styleUrl><Point><coordinates>18.126585,59.142233,0</coordinates></Point></Placemark><Placemark><name>Järna</name><description>48 · Södertälje</description><styleUrl>#dot-pendel</styleUrl><Point><coordinates>17.56812,59.093844,0</coordinates></Point></Placemark><Placemark><name>Kallhäll</name><description>43 · Järfälla</description><styleUrl>#dot-pendel</styleUrl><Point><coordinates>17.806999,59.452472,0</coordinates></Point></Placemark><Placemark><name>Knivsta</name><description>40 · Knivsta</description><styleUrl>#dot-pendel</styleUrl><Point><coordinates>17.786886,59.725761,0</coordinates></Point></Placemark><Placemark><name>Krigslida</name><description>43 · Haninge</description><styleUrl>#dot-pendel</styleUrl><Point><coordinates>18.065219,59.108788,0</coordinates></Point></Placemark><Placemark><name>Kungsängen</name><description>43 · Upplands-Bro</description><styleUrl>#dot-pendel</styleUrl><Point><coordinates>17.751843,59.477751,0</coordinates></Point></Placemark><Placemark><name>Märsta</name><description>41 · Sigtuna</description><styleUrl>#dot-pendel</styleUrl><Point><coordinates>17.861298,59.62662,0</coordinates></Point></Placemark><Placemark><name>Mölnbo</name><description>48 · Södertälje</description><styleUrl>#dot-pendel</styleUrl><Point><coordinates>17.419037,59.04759,0</coordinates></Point></Placemark><Placemark><name>Norrviken</name><description>40/41 · Sollentuna</description><styleUrl>#dot-pendel</styleUrl><Point><coordinates>17.924391,59.459113,0</coordinates></Point></Placemark><Placemark><name>Nynäsgård</name><description>43 · Nynäshamn</description><styleUrl>#dot-pendel</styleUrl><Point><coordinates>17.942555,58.913912,0</coordinates></Point></Placemark><Placemark><name>Nynäshamn</name><description>43 · Nynäshamn</description><styleUrl>#dot-pendel</styleUrl><Point><coordinates>17.950747,58.900914,0</coordinates></Point></Placemark><Placemark><name>Rosersberg</name><description>41 · Sigtuna</description><styleUrl>#dot-pendel</styleUrl><Point><coordinates>17.880103,59.58378,0</coordinates></Point></Placemark><Placemark><name>Rotebro</name><description>40/41 · Sollentuna</description><styleUrl>#dot-pendel</styleUrl><Point><coordinates>17.914775,59.475848,0</coordinates></Point></Placemark><Placemark><name>Rönninge</name><description>40/41 · Salem</description><styleUrl>#dot-pendel</styleUrl><Point><coordinates>17.750693,59.193497,0</coordinates></Point></Placemark><Placemark><name>Segersäng</name><description>43 · Nynäshamn</description><styleUrl>#dot-pendel</styleUrl><Point><coordinates>17.926748,59.028908,0</coordinates></Point></Placemark><Placemark><name>Skogås</name><description>43 · Huddinge</description><styleUrl>#dot-pendel</styleUrl><Point><coordinates>18.153356,59.219606,0</coordinates></Point></Placemark><Placemark><name>Sollentuna</name><description>40/41 · Sollentuna</description><styleUrl>#dot-pendel</styleUrl><Point><coordinates>17.948584,59.428425,0</coordinates></Point></Placemark><Placemark><name>Solna station</name><description>40/41/30 · Solna</description><styleUrl>#dot-pendel</styleUrl><Point><coordinates>18.008508,59.363863,0</coordinates></Point></Placemark><Placemark><name>Spånga</name><description>43 · Stockholm</description><styleUrl>#dot-pendel</styleUrl><Point><coordinates>17.89721,59.384106,0</coordinates></Point></Placemark><Placemark><name>Stockholms södra</name><description>40/41/43 · Stockholm</description><styleUrl>#dot-pendel</styleUrl><Point><coordinates>18.061811,59.313628,0</coordinates></Point></Placemark><Placemark><name>Stuvsta</name><description>40/41 · Huddinge</description><styleUrl>#dot-pendel</styleUrl><Point><coordinates>17.996865,59.254208,0</coordinates></Point></Placemark><Placemark><name>Södertälje centrum</name><description>40/41/48 · Södertälje</description><styleUrl>#dot-pendel</styleUrl><Point><coordinates>17.627475,59.191945,0</coordinates></Point></Placemark><Placemark><name>Södertälje hamn</name><description>40/41/48 · Södertälje</description><styleUrl>#dot-pendel</styleUrl><Point><coordinates>17.646873,59.178684,0</coordinates></Point></Placemark><Placemark><name>Södertälje syd</name><description>48 · Södertälje</description><styleUrl>#dot-pendel</styleUrl><Point><coordinates>17.645541,59.163516,0</coordinates></Point></Placemark><Placemark><name>Trångsund</name><description>43 · Huddinge</description><styleUrl>#dot-pendel</styleUrl><Point><coordinates>18.130831,59.227749,0</coordinates></Point></Placemark><Placemark><name>Tullinge</name><description>40/41 · Botkyrka</description><styleUrl>#dot-pendel</styleUrl><Point><coordinates>17.904575,59.205513,0</coordinates></Point></Placemark><Placemark><name>Tumba</name><description>40/41 · Botkyrka</description><styleUrl>#dot-pendel</styleUrl><Point><coordinates>17.836519,59.199478,0</coordinates></Point></Placemark><Placemark><name>Tungelsta</name><description>43 · Haninge</description><styleUrl>#dot-pendel</styleUrl><Point><coordinates>18.045592,59.102658,0</coordinates></Point></Placemark><Placemark><name>Ulriksdal</name><description>40/41 · Solna</description><styleUrl>#dot-pendel</styleUrl><Point><coordinates>18.000928,59.380285,0</coordinates></Point></Placemark><Placemark><name>Upplands Väsby</name><description>40/41 · Upplands Väsby</description><styleUrl>#dot-pendel</styleUrl><Point><coordinates>17.899374,59.520854,0</coordinates></Point></Placemark><Placemark><name>Uppsala C</name><description>40 · Uppsala</description><styleUrl>#dot-pendel</styleUrl><Point><coordinates>17.649023,59.85742,0</coordinates></Point></Placemark><Placemark><name>Vega</name><description>43 · Haninge</description><styleUrl>#dot-pendel</styleUrl><Point><coordinates>18.135897,59.186662,0</coordinates></Point></Placemark><Placemark><name>Västerhaninge</name><description>43 · Haninge</description><styleUrl>#dot-pendel</styleUrl><Point><coordinates>18.103278,59.123111,0</coordinates></Point></Placemark><Placemark><name>Älvsjö</name><description>40/41/43 · Stockholm</description><styleUrl>#dot-pendel</styleUrl><Point><coordinates>18.010607,59.278303,0</coordinates></Point></Placemark><Placemark><name>Årstaberg</name><description>40/41/43/30 · Stockholm</description><styleUrl>#dot-pendel</styleUrl><Point><coordinates>18.029713,59.299254,0</coordinates></Point></Placemark><Placemark><name>Ösmo</name><description>43 · Nynäshamn</description><styleUrl>#dot-pendel</styleUrl><Point><coordinates>17.902596,58.983998,0</coordinates></Point></Placemark><Placemark><name>Östertälje</name><description>40/41 · Södertälje</description><styleUrl>#dot-pendel</styleUrl><Point><coordinates>17.658091,59.18515,0</coordinates></Point></Placemark></Folder><Folder><name>Tram</name><Placemark><name>AGA</name><description>21 · Lidingö</description><styleUrl>#dot-orange</styleUrl><Point><coordinates>18.156505,59.346293,0</coordinates></Point></Placemark><Placemark><name>Alléparken</name><description>12 · Stockholm</description><styleUrl>#dot-nockeby</styleUrl><Point><coordinates>17.974462,59.329287,0</coordinates></Point></Placemark><Placemark><name>Alviks strand</name><description>30/31 · Stockholm</description><styleUrl>#dot-orange</styleUrl><Point><coordinates>17.98222,59.328963,0</coordinates></Point></Placemark><Placemark><name>Baggeby</name><description>21 · Lidingö</description><styleUrl>#dot-orange</styleUrl><Point><coordinates>18.132622,59.357055,0</coordinates></Point></Placemark><Placemark><name>Bodal</name><description>21 · Lidingö</description><styleUrl>#dot-orange</styleUrl><Point><coordinates>18.138162,59.353954,0</coordinates></Point></Placemark><Placemark><name>Brevik</name><description>21 · Lidingö</description><styleUrl>#dot-orange</styleUrl><Point><coordinates>18.203624,59.348411,0</coordinates></Point></Placemark><Placemark><name>Bromma Blocks</name><description>31 · Stockholm</description><styleUrl>#dot-orange</styleUrl><Point><coordinates>17.956882,59.353827,0</coordinates></Point></Placemark><Placemark><name>Bromma flygplats</name><description>31 · Stockholm</description><styleUrl>#dot-orange</styleUrl><Point><coordinates>17.946688,59.357067,0</coordinates></Point></Placemark><Placemark><name>Bällsta bro</name><description>30 · Sundbyberg</description><styleUrl>#dot-orange</styleUrl><Point><coordinates>17.963285,59.360752,0</coordinates></Point></Placemark><Placemark><name>Djurgårdsbron</name><description>7 · Stockholm</description><styleUrl>#dot-city</styleUrl><Point><coordinates>18.092641,59.331736,0</coordinates></Point></Placemark><Placemark><name>Djurgårdsskolan</name><description>7 · Stockholm</description><styleUrl>#dot-city</styleUrl><Point><coordinates>18.104603,59.323247,0</coordinates></Point></Placemark><Placemark><name>Gröndal</name><description>30 · Stockholm</description><styleUrl>#dot-orange</styleUrl><Point><coordinates>18.0113,59.31594,0</coordinates></Point></Placemark><Placemark><name>Gåshaga</name><description>21 · Lidingö</description><styleUrl>#dot-orange</styleUrl><Point><coordinates>18.226262,59.356596,0</coordinates></Point></Placemark><Placemark><name>Gåshaga brygga</name><description>21 · Lidingö</description><styleUrl>#dot-orange</styleUrl><Point><coordinates>18.233862,59.356893,0</coordinates></Point></Placemark><Placemark><name>Högberga</name><description>21 · Lidingö</description><styleUrl>#dot-orange</styleUrl><Point><coordinates>18.193714,59.344283,0</coordinates></Point></Placemark><Placemark><name>Höglandstorget</name><description>12 · Stockholm</description><styleUrl>#dot-nockeby</styleUrl><Point><coordinates>17.940388,59.323207,0</coordinates></Point></Placemark><Placemark><name>Johannesfred</name><description>30/31 · Stockholm</description><styleUrl>#dot-orange</styleUrl><Point><coordinates>17.969724,59.342754,0</coordinates></Point></Placemark><Placemark><name>Karlsbodavägen</name><description>30 · Stockholm</description><styleUrl>#dot-orange</styleUrl><Point><coordinates>17.961331,59.355927,0</coordinates></Point></Placemark><Placemark><name>Klövervägen</name><description>12 · Stockholm</description><styleUrl>#dot-nockeby</styleUrl><Point><coordinates>17.973731,59.32525,0</coordinates></Point></Placemark><Placemark><name>Kottla</name><description>21 · Lidingö</description><styleUrl>#dot-orange</styleUrl><Point><coordinates>18.179794,59.344444,0</coordinates></Point></Placemark><Placemark><name>Käppala</name><description>21 · Lidingö</description><styleUrl>#dot-orange</styleUrl><Point><coordinates>18.217733,59.352648,0</coordinates></Point></Placemark><Placemark><name>Larsberg</name><description>21 · Lidingö</description><styleUrl>#dot-orange</styleUrl><Point><coordinates>18.146562,59.350338,0</coordinates></Point></Placemark><Placemark><name>Liljevalchs/Gröna Lund</name><description>7 · Stockholm</description><styleUrl>#dot-city</styleUrl><Point><coordinates>18.097043,59.325273,0</coordinates></Point></Placemark><Placemark><name>Linde</name><description>30 · Stockholm</description><styleUrl>#dot-orange</styleUrl><Point><coordinates>18.064126,59.293377,0</coordinates></Point></Placemark><Placemark><name>Luma</name><description>30 · Stockholm</description><styleUrl>#dot-orange</styleUrl><Point><coordinates>18.095853,59.304196,0</coordinates></Point></Placemark><Placemark><name>Mårtensdal</name><description>30 · Stockholm</description><styleUrl>#dot-orange</styleUrl><Point><coordinates>18.088025,59.302698,0</coordinates></Point></Placemark><Placemark><name>Nockeby</name><description>12 · Stockholm</description><styleUrl>#dot-nockeby</styleUrl><Point><coordinates>17.918426,59.328713,0</coordinates></Point></Placemark><Placemark><name>Nockeby torg</name><description>12 · Stockholm</description><styleUrl>#dot-nockeby</styleUrl><Point><coordinates>17.928744,59.328982,0</coordinates></Point></Placemark><Placemark><name>Nordiska museet/Vasamuseet</name><description>7 · Stockholm</description><styleUrl>#dot-city</styleUrl><Point><coordinates>18.095389,59.329312,0</coordinates></Point></Placemark><Placemark><name>Norra Ulvsunda</name><description>30/31 · Stockholm</description><styleUrl>#dot-orange</styleUrl><Point><coordinates>17.96216,59.350296,0</coordinates></Point></Placemark><Placemark><name>Nybroplan</name><description>7 · Stockholm</description><styleUrl>#dot-city</styleUrl><Point><coordinates>18.076602,59.332694,0</coordinates></Point></Placemark><Placemark><name>Olovslund</name><description>12 · Stockholm</description><styleUrl>#dot-nockeby</styleUrl><Point><coordinates>17.935411,59.327896,0</coordinates></Point></Placemark><Placemark><name>Sickla</name><description>30/25 · Nacka</description><styleUrl>#dot-orange</styleUrl><Point><coordinates>18.120768,59.306855,0</coordinates></Point></Placemark><Placemark><name>Sickla kaj</name><description>30 · Stockholm</description><styleUrl>#dot-orange</styleUrl><Point><coordinates>18.103391,59.302626,0</coordinates></Point></Placemark><Placemark><name>Sickla udde</name><description>30 · Stockholm</description><styleUrl>#dot-orange</styleUrl><Point><coordinates>18.108543,59.30629,0</coordinates></Point></Placemark><Placemark><name>Skansen</name><description>7 · Stockholm</description><styleUrl>#dot-city</styleUrl><Point><coordinates>18.10137,59.323785,0</coordinates></Point></Placemark><Placemark><name>Skärsätra</name><description>21 · Lidingö</description><styleUrl>#dot-orange</styleUrl><Point><coordinates>18.170259,59.343388,0</coordinates></Point></Placemark><Placemark><name>Smedslätten</name><description>12 · Stockholm</description><styleUrl>#dot-nockeby</styleUrl><Point><coordinates>17.964635,59.320836,0</coordinates></Point></Placemark><Placemark><name>Solna Business Park</name><description>30 · Solna</description><styleUrl>#dot-orange</styleUrl><Point><coordinates>17.979085,59.359663,0</coordinates></Point></Placemark><Placemark><name>Stora Essingen</name><description>30 · Stockholm</description><styleUrl>#dot-orange</styleUrl><Point><coordinates>17.993094,59.324809,0</coordinates></Point></Placemark><Placemark><name>Styrmansgatan</name><description>7 · Stockholm</description><styleUrl>#dot-city</styleUrl><Point><coordinates>18.084029,59.331444,0</coordinates></Point></Placemark><Placemark><name>Torsvik/Millesgården</name><description>21 · Lidingö</description><styleUrl>#dot-orange</styleUrl><Point><coordinates>18.117748,59.361947,0</coordinates></Point></Placemark><Placemark><name>Trekanten</name><description>30 · Stockholm</description><styleUrl>#dot-orange</styleUrl><Point><coordinates>18.017902,59.314271,0</coordinates></Point></Placemark><Placemark><name>Valla torg</name><description>30 · Stockholm</description><styleUrl>#dot-orange</styleUrl><Point><coordinates>18.048493,59.295066,0</coordinates></Point></Placemark><Placemark><name>Waldemarsudde</name><description>7 · Stockholm</description><styleUrl>#dot-city</styleUrl><Point><coordinates>18.11126,59.322646,0</coordinates></Point></Placemark><Placemark><name>Ålstens gård</name><description>12 · Stockholm</description><styleUrl>#dot-nockeby</styleUrl><Point><coordinates>17.952145,59.320685,0</coordinates></Point></Placemark><Placemark><name>Ålstensgatan</name><description>12 · Stockholm</description><styleUrl>#dot-nockeby</styleUrl><Point><coordinates>17.956804,59.323449,0</coordinates></Point></Placemark><Placemark><name>Årstadal</name><description>30 · Stockholm</description><styleUrl>#dot-orange</styleUrl><Point><coordinates>18.025612,59.305878,0</coordinates></Point></Placemark><Placemark><name>Årstafältet</name><description>30 · Stockholm</description><styleUrl>#dot-orange</styleUrl><Point><coordinates>18.039524,59.296363,0</coordinates></Point></Placemark></Folder><Folder><name>Roslagsbanan</name><Placemark><name>Altorp</name><description>29 · Danderyd</description><styleUrl>#dot-roslag</styleUrl><Point><coordinates>18.07284,59.410829,0</coordinates></Point></Placemark><Placemark><name>Arninge</name><description>28 · Täby</description><styleUrl>#dot-roslag</styleUrl><Point><coordinates>18.141376,59.458786,0</coordinates></Point></Placemark><Placemark><name>Bråvallavägen</name><description>28 · Danderyd</description><styleUrl>#dot-roslag</styleUrl><Point><coordinates>18.060404,59.405305,0</coordinates></Point></Placemark><Placemark><name>Bällsta</name><description>27 · Vallentuna</description><styleUrl>#dot-roslag</styleUrl><Point><coordinates>18.07196,59.522982,0</coordinates></Point></Placemark><Placemark><name>Djursholms Ekeby</name><description>28 · Danderyd</description><styleUrl>#dot-roslag</styleUrl><Point><coordinates>18.057394,59.413309,0</coordinates></Point></Placemark><Placemark><name>Djursholms Ösby</name><description>27/28/29 · Danderyd</description><styleUrl>#dot-roslag</styleUrl><Point><coordinates>18.059099,59.398643,0</coordinates></Point></Placemark><Placemark><name>Ekskogen</name><description>27 · Vallentuna</description><styleUrl>#dot-roslag</styleUrl><Point><coordinates>18.226273,59.639006,0</coordinates></Point></Placemark><Placemark><name>Enebyberg</name><description>28 · Danderyd</description><styleUrl>#dot-roslag</styleUrl><Point><coordinates>18.051214,59.42581,0</coordinates></Point></Placemark><Placemark><name>Ensta</name><description>27 · Täby</description><styleUrl>#dot-roslag</styleUrl><Point><coordinates>18.063628,59.452139,0</coordinates></Point></Placemark><Placemark><name>Frösunda</name><description>27 · Vallentuna</description><styleUrl>#dot-roslag</styleUrl><Point><coordinates>18.17089,59.624869,0</coordinates></Point></Placemark><Placemark><name>Galoppfältet</name><description>28 · Täby</description><styleUrl>#dot-roslag</styleUrl><Point><coordinates>18.085027,59.446931,0</coordinates></Point></Placemark><Placemark><name>Hägernäs</name><description>28 · Täby</description><styleUrl>#dot-roslag</styleUrl><Point><coordinates>18.125053,59.450942,0</coordinates></Point></Placemark><Placemark><name>Kragstalund</name><description>27 · Vallentuna</description><styleUrl>#dot-roslag</styleUrl><Point><coordinates>18.075699,59.510192,0</coordinates></Point></Placemark><Placemark><name>Kårsta</name><description>27 · Vallentuna</description><styleUrl>#dot-roslag</styleUrl><Point><coordinates>18.267554,59.656771,0</coordinates></Point></Placemark><Placemark><name>Lahäll</name><description>29 · Täby</description><styleUrl>#dot-roslag</styleUrl><Point><coordinates>18.074033,59.424012,0</coordinates></Point></Placemark><Placemark><name>Lindholmen</name><description>27 · Vallentuna</description><styleUrl>#dot-roslag</styleUrl><Point><coordinates>18.10925,59.584287,0</coordinates></Point></Placemark><Placemark><name>Molnby</name><description>27 · Vallentuna</description><styleUrl>#dot-roslag</styleUrl><Point><coordinates>18.085273,59.557788,0</coordinates></Point></Placemark><Placemark><name>Mörby</name><description>27/28/29 · Danderyd</description><styleUrl>#dot-roslag</styleUrl><Point><coordinates>18.047194,59.392119,0</coordinates></Point></Placemark><Placemark><name>Näsby allé</name><description>29 · Täby</description><styleUrl>#dot-roslag</styleUrl><Point><coordinates>18.085215,59.427354,0</coordinates></Point></Placemark><Placemark><name>Näsbypark</name><description>29 · Täby</description><styleUrl>#dot-roslag</styleUrl><Point><coordinates>18.095472,59.430194,0</coordinates></Point></Placemark><Placemark><name>Ormsta</name><description>27 · Vallentuna</description><styleUrl>#dot-roslag</styleUrl><Point><coordinates>18.079466,59.546056,0</coordinates></Point></Placemark><Placemark><name>Roslags Näsby</name><description>27/28 · Täby</description><styleUrl>#dot-roslag</styleUrl><Point><coordinates>18.05802,59.435764,0</coordinates></Point></Placemark><Placemark><name>Rydbo</name><description>28 · Österåker</description><styleUrl>#dot-roslag</styleUrl><Point><coordinates>18.185626,59.465402,0</coordinates></Point></Placemark><Placemark><name>Stocksund</name><description>29 · Danderyd</description><styleUrl>#dot-roslag</styleUrl><Point><coordinates>18.043834,59.384997,0</coordinates></Point></Placemark><Placemark><name>Tibble</name><description>27 · Täby</description><styleUrl>#dot-roslag</styleUrl><Point><coordinates>18.062693,59.442409,0</coordinates></Point></Placemark><Placemark><name>Tunagård</name><description>28 · Österåker</description><styleUrl>#dot-roslag</styleUrl><Point><coordinates>18.307309,59.468975,0</coordinates></Point></Placemark><Placemark><name>Täby Centrum</name><description>28 · Täby</description><styleUrl>#dot-roslag</styleUrl><Point><coordinates>18.074674,59.444277,0</coordinates></Point></Placemark><Placemark><name>Täby Kyrkby</name><description>27 · Täby</description><styleUrl>#dot-roslag</styleUrl><Point><coordinates>18.066215,59.492962,0</coordinates></Point></Placemark><Placemark><name>Täljö</name><description>28 · Österåker</description><styleUrl>#dot-roslag</styleUrl><Point><coordinates>18.235597,59.473363,0</coordinates></Point></Placemark><Placemark><name>Vallentuna</name><description>27 · Vallentuna</description><styleUrl>#dot-roslag</styleUrl><Point><coordinates>18.08016,59.534432,0</coordinates></Point></Placemark><Placemark><name>Vendevägen</name><description>29 · Danderyd</description><styleUrl>#dot-roslag</styleUrl><Point><coordinates>18.06759,59.399766,0</coordinates></Point></Placemark><Placemark><name>Viggbyholm</name><description>28 · Täby</description><styleUrl>#dot-roslag</styleUrl><Point><coordinates>18.104362,59.449406,0</coordinates></Point></Placemark><Placemark><name>Visinge</name><description>27 · Täby</description><styleUrl>#dot-roslag</styleUrl><Point><coordinates>18.063112,59.46269,0</coordinates></Point></Placemark><Placemark><name>Åkers Runö</name><description>28 · Österåker</description><styleUrl>#dot-roslag</styleUrl><Point><coordinates>18.270644,59.480636,0</coordinates></Point></Placemark><Placemark><name>Åkersberga</name><description>28 · Österåker</description><styleUrl>#dot-roslag</styleUrl><Point><coordinates>18.29864,59.479172,0</coordinates></Point></Placemark><Placemark><name>Östberga</name><description>29 · Danderyd</description><styleUrl>#dot-roslag</styleUrl><Point><coordinates>18.073893,59.403989,0</coordinates></Point></Placemark><Placemark><name>Österskär</name><description>28 · Österåker</description><styleUrl>#dot-roslag</styleUrl><Point><coordinates>18.311069,59.461213,0</coordinates></Point></Placemark></Folder><Folder><name>Saltsjöbanan</name><Placemark><name>Erstaviksbadet</name><description>26 · Nacka</description><styleUrl>#dot-saltsjo</styleUrl><Point><coordinates>18.285232,59.272884,0</coordinates></Point></Placemark><Placemark><name>Fisksätra</name><description>25 · Nacka</description><styleUrl>#dot-saltsjo</styleUrl><Point><coordinates>18.256127,59.294189,0</coordinates></Point></Placemark><Placemark><name>Henriksdal</name><description>25 · Nacka</description><styleUrl>#dot-saltsjo</styleUrl><Point><coordinates>18.108423,59.312141,0</coordinates></Point></Placemark><Placemark><name>Igelboda</name><description>25/26 · Nacka</description><styleUrl>#dot-saltsjo</styleUrl><Point><coordinates>18.275749,59.289784,0</coordinates></Point></Placemark><Placemark><name>Lillängen</name><description>25 · Nacka</description><styleUrl>#dot-saltsjo</styleUrl><Point><coordinates>18.161693,59.305096,0</coordinates></Point></Placemark><Placemark><name>Nacka</name><description>25 · Nacka</description><styleUrl>#dot-saltsjo</styleUrl><Point><coordinates>18.130426,59.306585,0</coordinates></Point></Placemark><Placemark><name>Neglinge</name><description>25 · Nacka</description><styleUrl>#dot-saltsjo</styleUrl><Point><coordinates>18.292719,59.28839,0</coordinates></Point></Placemark><Placemark><name>Ringvägen</name><description>25 · Nacka</description><styleUrl>#dot-saltsjo</styleUrl><Point><coordinates>18.302257,59.283086,0</coordinates></Point></Placemark><Placemark><name>Saltsjö-Duvnäs</name><description>25 · Nacka</description><styleUrl>#dot-saltsjo</styleUrl><Point><coordinates>18.19901,59.300522,0</coordinates></Point></Placemark><Placemark><name>Saltsjö-Järla</name><description>25 · Nacka</description><styleUrl>#dot-saltsjo</styleUrl><Point><coordinates>18.150281,59.306919,0</coordinates></Point></Placemark><Placemark><name>Saltsjöbaden</name><description>25 · Nacka</description><styleUrl>#dot-saltsjo</styleUrl><Point><coordinates>18.312288,59.27904,0</coordinates></Point></Placemark><Placemark><name>Solsidan</name><description>26 · Nacka</description><styleUrl>#dot-saltsjo</styleUrl><Point><coordinates>18.296122,59.27091,0</coordinates></Point></Placemark><Placemark><name>Storängen</name><description>25 · Nacka</description><styleUrl>#dot-saltsjo</styleUrl><Point><coordinates>18.178278,59.305577,0</coordinates></Point></Placemark><Placemark><name>Tattby</name><description>26 · Nacka</description><styleUrl>#dot-saltsjo</styleUrl><Point><coordinates>18.280366,59.279638,0</coordinates></Point></Placemark><Placemark><name>Tippen</name><description>26 · Nacka</description><styleUrl>#dot-saltsjo</styleUrl><Point><coordinates>18.277324,59.284187,0</coordinates></Point></Placemark><Placemark><name>Östervik</name><description>25 · Nacka</description><styleUrl>#dot-saltsjo</styleUrl><Point><coordinates>18.235492,59.294993,0</coordinates></Point></Placemark></Folder></Document></kml>